COSMOS 2251 DEB         
1 37095U 93036BFR 17345.33423086  .00001099  00000-0  71221-3 0  9999
2 37095  73.8509 232.7008 0220298 102.9706 259.6121 13.92608488441800
